{"type": "FeatureCollection", "features": [ {"type": "Feature", "properties": {"norad_id": 41836, "name": "HIMAWARI-9", "group": "weather", "lat": 0.01153135348664817, "lon": 47.29658344058959, "alt_km": 35784.26355142745, "timestamp": "2025-12-24T11:32:59.645453+00:00", "meta": {"OBJECT_NAME": "HIMAWARI-9", "OBJECT_ID": "2016-064A", "EPOCH": "2025-12-23T22:52:38.784288", "MEAN_MOTION": 1.00271828, "ECCENTRICITY": 0.0001637, "INCLINATION": 0.0175, "RA_OF_ASC_NODE": 40.3208, "ARG_OF_PERICENTER": 292.8784, "MEAN_ANOMALY": 243.4785, "EPHEMERIS_TYPE": 0, "CLASSIFICATION_TYPE": "U", "NORAD_CAT_ID": 41836, "ELEMENT_SET_NO": 999, "REV_AT_EPOCH": 3345, "BSTAR": 0, "MEAN_MOTION_DOT": 0, "MEAN_MOTION_DDOT": 0}, "tle": {"line1": "1 41836U 16064A   25357.95322667  .00000000  00000+0  00000+0 0  9999", "line2": "2 41836   0.0175  40.3208 0001637 292.8784 243.4785  1.00271828 33458"}}, "geometry": {"type": "Point", "coordinates": [47.29658344058959, 0.01153135348664817]}}, {"type": "Feature", "properties": {"norad_id": 41866, "name": "GOES 16", "group": "weather", "lat": 0.07310952443527922, "lon": 161.79906150899242, "alt_km": 35789.442203877625, "timestamp": "2025-12-24T11:32:59.645465+00:00", "meta": {"OBJECT_NAME": "GOES 16", "OBJECT_ID": "2016-071A", "EPOCH": "2025-12-24T03:35:46.036032", "MEAN_MOTION": 1.00271818, "ECCENTRICITY": 0.0003141, "INCLINATION": 0.0747, "RA_OF_ASC_NODE": 102.0744, "ARG_OF_PERICENTER": 164.3527, "MEAN_ANOMALY": 135.7799, "EPHEMERIS_TYPE": 0, "CLASSIFICATION_TYPE": "U", "NORAD_CAT_ID": 41866, "ELEMENT_SET_NO": 999, "REV_AT_EPOCH": 3334, "BSTAR": 0, "MEAN_MOTION_DOT": -7e-07, "MEAN_MOTION_DDOT": 0}, "tle": {"line1": "1 41866U 16071A   25358.14983838 -.00000070  00000+0  00000+0 0  9993", "line2": "2 41866   0.0747 102.0744 0003141 164.3527 135.7799  1.00271818 33342"}}, "geometry": {"type": "Point", "coordinates": [161.79906150899242, 0.07310952443527922]}}, {"type": "Feature", "properties": {"norad_id": 41882, "name": "FENGYUN 4A", "group": "weather", "lat": -1.4763950096828635, "lon": 30.14858000614656, "alt_km": 35808.6524156236, "timestamp": "2025-12-24T11:32:59.645477+00:00", "meta": {"OBJECT_NAME": "FENGYUN 4A", "OBJECT_ID": "2016-077A", "EPOCH": "2025-12-23T23:59:34.530144", "MEAN_MOTION": 1.00260616, "ECCENTRICITY": 0.0004702, "INCLINATION": 1.8756, "RA_OF_ASC_NODE": 82.2934, "ARG_OF_PERICENTER": 142.1473, "MEAN_ANOMALY": 351.8744, "EPHEMERIS_TYPE": 0, "CLASSIFICATION_TYPE": "U", "NORAD_CAT_ID": 41882, "ELEMENT_SET_NO": 999, "REV_AT_EPOCH": 3317, "BSTAR": 0, "MEAN_MOTION_DOT": -3.37e-06, "MEAN_MOTION_DDOT": 0}, "tle": {"line1": "1 41882U 16077A   25357.99970521 -.00000337  00000+0  00000+0 0  9990", "line2": "2 41882   1.8756  82.2934 0004702 142.1473 351.8744  1.00260616 33173"}}, "geometry": {"type": "Point", "coordinates": [30.14858000614656, -1.4763950096828635]}}, {"type": "Feature", "properties": {"norad_id": 41884, "name": "CYGFM05", "group": "weather", "lat": 10.946486521914576, "lon": -13.519381294572757, "alt_km": 420.3101199896246, "timestamp": "2025-12-24T11:32:59.645489+00:00", "meta": {"OBJECT_NAME": "CYGFM05", "OBJECT_ID": "2016-078A", "EPOCH": "2025-12-24T02:10:49.312992", "MEAN_MOTION": 15.48049093, "ECCENTRICITY": 0.0010633, "INCLINATION": 34.9605, "RA_OF_ASC_NODE": 332.9616, "ARG_OF_PERICENTER": 281.202, "MEAN_ANOMALY": 78.7506, "EPHEMERIS_TYPE": 0, "CLASSIFICATION_TYPE": "U", "NORAD_CAT_ID": 41884, "ELEMENT_SET_NO": 999, "REV_AT_EPOCH": 50152, "BSTAR": 0.00036468, "MEAN_MOTION_DOT": 0.00019725, "MEAN_MOTION_DDOT": 0}, "tle": {"line1": "1 41884U 16078A   25358.09084853  .00019725  00000+0  36468-3 0  9990", "line2": "2 41884  34.9605 332.9616 0010633 281.2020  78.7506 15.48049093501521"}}, "geometry": {"type": "Point", "coordinates": [-13.519381294572757, 10.946486521914576]}}, {"type": "Feature", "properties": {"norad_id": 41885, "name": "CYGFM04", "group": "weather", "lat": 8.853459108968492, "lon": -42.26207004787002, "alt_km": 409.35457040350593, "timestamp": "2025-12-24T11:32:59.645499+00:00", "meta": {"OBJECT_NAME": "CYGFM04", "OBJECT_ID": "2016-078B", "EPOCH": "2025-12-24T03:45:30.181248", "MEAN_MOTION": 15.5083793, "ECCENTRICITY": 0.0009294, "INCLINATION": 34.9353, "RA_OF_ASC_NODE": 306.9754, "ARG_OF_PERICENTER": 306.2951, "MEAN_ANOMALY": 53.6912, "EPHEMERIS_TYPE": 0, "CLASSIFICATION_TYPE": "U", "NORAD_CAT_ID": 41885, "ELEMENT_SET_NO": 999, "REV_AT_EPOCH": 50171, "BSTAR": 0.00039259, "MEAN_MOTION_DOT": 0.00023445, "MEAN_MOTION_DDOT": 0}, "tle": {"line1": "1 41885U 16078B   25358.15659932  .00023445  00000+0  39259-3 0  9999", "line2": "2 41885  34.9353 306.9754 0009294 306.2951  53.6912 15.50837930501710"}}, "geometry": {"type": "Point", "coordinates": [-42.26207004787002, 8.853459108968492]}}, {"type": "Feature", "properties": {"norad_id": 41886, "name": "CYGFM02", "group": "weather", "lat": 34.898903168519816, "lon": 30.500541750054982, "alt_km": 409.0755034336462, "timestamp": "2025-12-24T11:32:59.645510+00:00", "meta": {"OBJECT_NAME": "CYGFM02", "OBJECT_ID": "2016-078C", "EPOCH": "2025-12-24T03:27:19.833120", "MEAN_MOTION": 15.52250586, "ECCENTRICITY": 0.0010905, "INCLINATION": 34.9441, "RA_OF_ASC_NODE": 305.2353, "ARG_OF_PERICENTER": 307.6197, "MEAN_ANOMALY": 52.3535, "EPHEMERIS_TYPE": 0, "CLASSIFICATION_TYPE": "U", "NORAD_CAT_ID": 41886, "ELEMENT_SET_NO": 999, "REV_AT_EPOCH": 50184, "BSTAR": 0.00039758, "MEAN_MOTION_DOT": 0.00025004, "MEAN_MOTION_DDOT": 0}, "tle": {"line1": "1 41886U 16078C   25358.14397955  .00025004  00000+0  39758-3 0  9990", "line2": "2 41886  34.9441 305.2353 0010905 307.6197  52.3535 15.52250586501843"}}, "geometry": {"type": "Point", "coordinates": [30.500541750054982, 34.898903168519816]}}, {"type": "Feature", "properties": {"norad_id": 41887, "name": "CYGFM01", "group": "weather", "lat": 34.909680346730276, "lon": 60.78678831148442, "alt_km": 421.2113397798594, "timestamp": "2025-12-24T11:32:59.645520+00:00", "meta": {"OBJECT_NAME": "CYGFM01", "OBJECT_ID": "2016-078D", "EPOCH": "2025-12-24T01:53:12.775776", "MEAN_MOTION": 15.48639594, "ECCENTRICITY": 0.0010428, "INCLINATION": 34.9435, "RA_OF_ASC_NODE": 335.3101, "ARG_OF_PERICENTER": 273.2967, "MEAN_ANOMALY": 86.6561, "EPHEMERIS_TYPE": 0, "CLASSIFICATION_TYPE": "U", "NORAD_CAT_ID": 41887, "ELEMENT_SET_NO": 999, "REV_AT_EPOCH": 50146, "BSTAR": 0.00037605, "MEAN_MOTION_DOT": 0.00020771, "MEAN_MOTION_DDOT": 0}, "tle": {"line1": "1 41887U 16078D   25358.07862009  .00020771  00000+0  37605-3 0  9995", "line2": "2 41887  34.9435 335.3101 0010428 273.2967  86.6561 15.48639594501467"}}, "geometry": {"type": "Point", "coordinates": [60.78678831148442, 34.909680346730276]}}, {"type": "Feature", "properties": {"norad_id": 41888, "name": "CYGFM08", "group": "weather", "lat": -4.894942260244365, "lon": 142.5736596427848, "alt_km": 419.47968102118466, "timestamp": "2025-12-24T11:32:59.645531+00:00", "meta": {"OBJECT_NAME": "CYGFM08", "OBJECT_ID": "2016-078E", "EPOCH": "2025-12-24T03:00:37.069056", "MEAN_MOTION": 15.49879338, "ECCENTRICITY": 0.0011627, "INCLINATION": 34.9466, "RA_OF_ASC_NODE": 317.8617, "ARG_OF_PERICENTER": 297.1127, "MEAN_ANOMALY": 62.8409, "EPHEMERIS_TYPE": 0, "CLASSIFICATION_TYPE": "U", "NORAD_CAT_ID": 41888, "ELEMENT_SET_NO": 999, "REV_AT_EPOCH": 50170, "BSTAR": 0.00038929, "MEAN_MOTION_DOT": 0.00022485, "MEAN_MOTION_DDOT": 0}, "tle": {"line1": "1 41888U 16078E   25358.12542904  .00022485  00000+0  38929-3 0  9995", "line2": "2 41888  34.9466 317.8617 0011627 297.1127  62.8409 15.49879338501701"}}, "geometry": {"type": "Point", "coordinates": [142.5736596427848, -4.894942260244365]}}, {"type": "Feature", "properties": {"norad_id": 41890, "name": "CYGFM07", "group": "weather", "lat": -11.977499263715446, "lon": 142.12820190974054, "alt_km": 418.2179647802732, "timestamp": "2025-12-24T11:32:59.645542+00:00", "meta": {"OBJECT_NAME": "CYGFM07", "OBJECT_ID": "2016-078G", "EPOCH": "2025-12-24T02:57:33.801696", "MEAN_MOTION": 15.50473006, "ECCENTRICITY": 0.0009569, "INCLINATION": 34.948, "RA_OF_ASC_NODE": 306.7919, "ARG_OF_PERICENTER": 311.6745, "MEAN_ANOMALY": 48.3157, "EPHEMERIS_TYPE": 0, "CLASSIFICATION_TYPE": "U", "NORAD_CAT_ID": 41890, "ELEMENT_SET_NO": 999, "REV_AT_EPOCH": 50172, "BSTAR": 0.00039437, "MEAN_MOTION_DOT": 0.00023247, "MEAN_MOTION_DDOT": 0}, "tle": {"line1": "1 41890U 16078G   25358.12330789  .00023247  00000+0  39437-3 0  9996", "line2": "2 41890  34.9480 306.7919 0009569 311.6745  48.3157 15.50473006501727"}}, "geometry": {"type": "Point", "coordinates": [142.12820190974054, -11.977499263715446]}}, {"type": "Feature", "properties": {"norad_id": 41891, "name": "CYGFM03", "group": "weather", "lat": 17.502055274907907, "lon": -26.78272559365303, "alt_km": 411.8697334204762, "timestamp": "2025-12-24T11:32:59.645553+00:00", "meta": {"OBJECT_NAME": "CYGFM03", "OBJECT_ID": "2016-078H", "EPOCH": "2025-12-24T02:08:29.663808", "MEAN_MOTION": 15.50365303, "ECCENTRICITY": 0.0009353, "INCLINATION": 34.9435, "RA_OF_ASC_NODE": 308.9414, "ARG_OF_PERICENTER": 298.7781, "MEAN_ANOMALY": 61.2001, "EPHEMERIS_TYPE": 0, "CLASSIFICATION_TYPE": "U", "NORAD_CAT_ID": 41891, "ELEMENT_SET_NO": 999, "REV_AT_EPOCH": 50169, "BSTAR": 0.00037368, "MEAN_MOTION_DOT": 0.00021935, "MEAN_MOTION_DDOT": 0}, "tle": {"line1": "1 41891U 16078H   25358.08923222  .00021935  00000+0  37368-3 0  9995", "line2": "2 41891  34.9435 308.9414 0009353 298.7781  61.2001 15.50365303501696"}}, "geometry": {"type": "Point", "coordinates": [-26.78272559365303, 17.502055274907907]}}]}